[{"OBJECT_NAME":"OBJECT A","OBJECT_ID":"2024-018A","EPOCH":"2026-03-09T23:31:34.722336","MEAN_MOTION":14.39019523,"ECCENTRICITY":0.04318583,"INCLINATION":58.6872,"RA_OF_ASC_NODE":217.3493,"ARG_OF_PERICENTER":349.6639,"MEAN_ANOMALY":9.5713,"EPHEMERIS_TYPE":0,"CLASSIFICATION_TYPE":"U","NORAD_CAT_ID":58849,"ELEMENT_SET_NO":999,"REV_AT_EPOCH":11089,"BSTAR":0.00018648837,"MEAN_MOTION_DOT":1.516e-5,"MEAN_MOTION_DDOT":0},{"OBJECT_NAME":"SPOT 1","OBJECT_ID":"1986-019A","EPOCH":"2026-03-09T18:07:50.597472","MEAN_MOTION":14.71225325,"ECCENTRICITY":0.01282848,"INCLINATION":98.6589,"RA_OF_ASC_NODE":355.6082,"ARG_OF_PERICENTER":216.6386,"MEAN_ANOMALY":142.5996,"EPHEMERIS_TYPE":0,"CLASSIFICATION_TYPE":"U","NORAD_CAT_ID":16613,"ELEMENT_SET_NO":999,"REV_AT_EPOCH":79637,"BSTAR":0.00023669966,"MEAN_MOTION_DOT":1.593e-5,"MEAN_MOTION_DDOT":0}]
